NORAD_CAT_ID,OBJECT_NAME,OBJECT_TYPE,EPOCH,MEAN_MOTION,ECCENTRICITY,INCLINATION,RA_OF_ASC_NODE,ARG_OF_PERICENTER,MEAN_ANOMALY,BSTAR,MEAN_MOTION_DOT,MEAN_MOTION_DDOT,TLE_LINE0,TLE_LINE1,TLE_LINE2,SEMIMAJOR_AXIS,PERIOD,APOGEE,PERIGEE,DECAYED
55660.0,STARLINK-5467,PAYLOAD,2023-03-31 04:53:48,15.69936413,0.0002614,69.9999,33.437,255.9247,104.1658,1.5418e-05,1.643e-05,0.0,0 STARLINK-5467,1 55660U 23021AJ  23090.20402961  .00001643  00000-0  15418-4 0  9995,2 55660  69.9999  33.4370 0002614 255.9247 104.1658 15.69936413  7056,6737.216,91.723,360.842,357.32,0.0
55660.0,STARLINK-5467,PAYLOAD,2023-03-31 20:11:20,15.69913207,0.0003163,69.9996,31.644,280.2795,79.8044,1.4145e-06,-4.3e-07,0.0,0 STARLINK-5467,1 55660U 23021AJ  23090.84121380 -.00000043  00000-0  14145-5 0  9999,2 55660  69.9996  31.6440 0003163 280.2795  79.8044 15.69913207  7154,6737.282,91.725,361.278,357.016,0.0
55660.0,STARLINK-5467,PAYLOAD,2023-04-01 05:21:51,15.69915927,0.0002995,69.9995,30.5698,272.9143,87.1709,3.7039e-06,2.33e-06,0.0,0 STARLINK-5467,1 55660U 23021AJ  23091.22351350  .00000233  00000-0  37039-5 0  9991,2 55660  69.9995  30.5698 0002995 272.9143  87.1709 15.69915927  7514,6737.275,91.725,361.157,357.122,0.0
55660.0,STARLINK-5467,PAYLOAD,2023-04-02 05:49:52,15.69935784,0.0002551,70.0009,27.7054,269.1558,90.9345,4.6841e-06,3.51e-06,0.0,0 STARLINK-5467,1 55660U 23021AJ  23092.24297115  .00000351  00000-0  46841-5 0  9994,2 55660  70.0009  27.7054 0002551 269.1558  90.9345 15.69935784  7378,6737.218,91.723,360.801,357.364,0.0
55660.0,STARLINK-5467,PAYLOAD,2023-04-02 07:21:36,15.69944477,0.0003393,70.0,27.5266,256.3172,103.7646,1.1979e-05,1.229e-05,0.0,0 STARLINK-5467,1 55660U 23021AJ  23092.30667808  .00001229  00000-0  11979-4 0  9999,2 55660  70.0000  27.5266 0003393 256.3172 103.7646 15.69944477  7384,6737.193,91.723,361.344,356.772,0.0
55660.0,STARLINK-5467,PAYLOAD,2023-04-02 21:07:23,15.6992846,0.0002863,70.0008,25.9152,261.0175,99.0697,1.8657e-05,2.032e-05,0.0,0 STARLINK-5467,1 55660U 23021AJ  23092.88013795  .00002032  00000-0  18657-4 0  9995,2 55660  70.0008  25.9152 0002863 261.0175  99.0697 15.69928460  7472,6737.239,91.724,361.033,357.175,0.0
55660.0,STARLINK-5467,PAYLOAD,2023-04-03 04:46:10,15.69911599,0.0002856,70.0002,25.0171,268.115,91.9718,2.9037e-06,1.37e-06,0.0,0 STARLINK-5467,1 55660U 23021AJ  23093.19873636  .00000137  00000-0  29037-5 0  9997,2 55660  70.0002  25.0171 0002856 268.1150  91.9718 15.69911599  7527,6737.287,91.725,361.076,357.228,0.0
55660.0,STARLINK-5467,PAYLOAD,2023-04-03 18:31:56,15.69927193,0.0003386,69.999,23.4052,262.7593,97.3218,-1.3324e-07,-2.29e-06,0.0,0 STARLINK-5467,1 55660U 23021AJ  23093.77217854 -.00000229  00000-0 -13324-6 0  9992,2 55660  69.9990  23.4052 0003386 262.7593  97.3218 15.69927193  7612,6737.242,91.724,361.389,356.826,0.0
55660.0,STARLINK-5467,PAYLOAD,2023-04-03 21:35:26,15.69930864,0.0003373,69.9995,23.0484,260.1831,99.8984,1.7743e-06,1e-08,0.0,0 STARLINK-5467,1 55660U 23021AJ  23093.89960874  .00000001  00000-0  17743-5 0  9996,2 55660  69.9995  23.0484 0003373 260.1831  99.8984 15.69930864  7936,6737.232,91.724,361.369,356.824,0.0
55660.0,STARLINK-5467,PAYLOAD,2023-04-04 05:14:14,15.69898187,0.0003001,69.9994,22.1529,254.2995,105.7869,-3.8094e-05,-4.785e-05,0.0,0 STARLINK-5467,1 55660U 23021AJ  23094.21822017 -.00004785  00000-0 -38094-4 0  9995,2 55660  69.9994  22.1529 0003001 254.2995 105.7869 15.69898187  7680,6737.325,91.726,361.212,357.168,0.0
55660.0,STARLINK-5467,PAYLOAD,2023-04-04 06:45:59,15.69902936,0.0003175,69.9993,21.971,270.4131,89.6701,-3.0403e-05,-3.863e-05,0.0,0 STARLINK-5467,1 55660U 23021AJ  23094.28193351 -.00003863  00000-0 -30403-4 0  9996,2 55660  69.9993  21.9710 0003175 270.4131  89.6701 15.69902936  7999,6737.312,91.725,361.316,357.038,0.0
55660.0,STARLINK-5467,PAYLOAD,2023-04-04 19:00:00,15.69898932,0.0003185,69.9992,20.5376,268.9885,91.0945,-2.1926e-05,-2.845e-05,0.0,0 STARLINK-5467,1 55660U 23021AJ  23094.79167318 -.00002845  00000-0 -21926-4 0  9995,2 55660  69.9992  20.5376 0003185 268.9885  91.0945 15.69898932  7773,6737.323,91.726,361.334,357.042,0.0
55660.0,STARLINK-5467,PAYLOAD,2023-04-04 22:03:29,15.69918959,0.0002573,70.0003,20.1821,246.4574,113.6352,1.1282e-05,1.144e-05,0.0,0 STARLINK-5467,1 55660U 23021AJ  23094.91908881  .00001144  00000-0  11282-4 0  9990,2 55660  70.0003  20.1821 0002573 246.4574 113.6352 15.69918959  8097,6737.266,91.724,360.864,357.397,0.0
55660.0,STARLINK-5467,PAYLOAD,2023-04-05 04:10:29,15.69920134,0.0002397,70.0016,19.4676,242.2203,117.875,2.6684e-05,2.997e-05,0.0,0 STARLINK-5467,1 55660U 23021AJ  23095.17395365  .00002997  00000-0  26684-4 0  9995,2 55660  70.0016  19.4676 0002397 242.2203 117.8750 15.69920134  7834,6737.262,91.724,360.742,357.513,0.0
55660.0,STARLINK-5467,PAYLOAD,2023-04-05 20:59:45,15.6992036,0.000417,70.0003,17.4956,283.0167,77.0563,6.1936e-06,5.32e-06,0.0,0 STARLINK-5467,1 55660U 23021AJ  23095.87483725  .00000532  00000-0  61936-5 0  9993,2 55660  70.0003  17.4956 0004170 283.0167  77.0563 15.69920360  8248,6737.262,91.724,361.936,356.317,0.0
55660.0,STARLINK-5467,PAYLOAD,2023-04-06 04:38:30,15.69933903,0.0003228,69.9998,16.5975,264.9,95.1827,1.4095e-05,1.483e-05,0.0,0 STARLINK-5467,1 55660U 23021AJ  23096.19340905  .00001483  00000-0  14095-4 0  9990,2 55660  69.9998  16.5975 0003228 264.9000  95.1827 15.69933903  7998,6737.223,91.724,361.263,356.913,0.0
55660.0,STARLINK-5467,PAYLOAD,2023-04-07 03:34:48,15.69930072,0.0003248,69.9992,13.9124,259.0043,101.0787,-9.8257e-06,-1.394e-05,0.0,0 STARLINK-5467,1 55660U 23021AJ  23097.14917047 -.00001394  00000-0 -98257-5 0  9999,2 55660  69.9992  13.9124 0003248 259.0043 101.0787 15.69930072  8147,6737.234,91.724,361.287,356.911,0.0
55660.0,STARLINK-5467,PAYLOAD,2023-04-08 04:02:50,15.69916306,0.0003187,69.9988,11.0452,252.4816,107.6032,2.2316e-06,5.6e-07,0.0,0 STARLINK-5467,1 55660U 23021AJ  23098.16863864  .00000056  00000-0  22316-5 0  9994,2 55660  69.9988  11.0452 0003187 252.4816 107.6032 15.69916306  8309,6737.273,91.725,361.286,356.991,0.0
55660.0,STARLINK-5467,PAYLOAD,2023-04-08 13:13:20,15.69927761,0.000344,69.999,9.9694,268.4122,91.668,2.9608e-06,1.43e-06,0.0,0 STARLINK-5467,1 55660U 23021AJ  23098.55093167  .00000143  00000-0  29608-5 0  9996,2 55660  69.9990   9.9694 0003440 268.4122  91.6680 15.69927761  8369,6737.241,91.724,361.423,356.788,0.0
55660.0,STARLINK-5467,PAYLOAD,2023-04-08 17:48:36,15.69916417,0.0003169,69.9989,9.4336,258.568,101.5159,-5.8876e-06,-9.2e-06,0.0,0 STARLINK-5467,1 55660U 23021AJ  23098.74209176 -.00000920  00000-0 -58876-5 0  9990,2 55660  69.9989   9.4336 0003169 258.5680 101.5159 15.69916417  8393,6737.273,91.725,361.273,357.003,0.0
55660.0,STARLINK-5467,PAYLOAD,2023-04-09 01:27:22,15.69887422,0.0002432,70.0008,8.5392,257.3357,102.7567,5.527e-05,6.428e-05,0.0,0 STARLINK-5467,1 55660U 23021AJ  23099.06067756  .00006428  00000-0  55270-4 0  9993,2 55660  70.0008   8.5392 0002432 257.3357 102.7567 15.69887422  8445,6737.356,91.726,360.86,357.583,0.0
55660.0,STARLINK-5467,PAYLOAD,2023-04-09 18:16:37,15.6993276,0.0003139,70.0,6.5662,255.6159,104.4688,3.6055e-06,2.21e-06,0.0,0 STARLINK-5467,1 55660U 23021AJ  23099.76154738  .00000221  00000-0  36055-5 0  9993,2 55660  70.0000   6.5662 0003139 255.6159 104.4688 15.69932760  8855,6737.226,91.724,361.206,356.977,0.0
55660.0,STARLINK-5467,PAYLOAD,2023-04-10 00:23:38,15.69927927,0.0003354,69.9992,5.8506,261.0715,99.0101,6.7008e-06,5.93e-06,0.0,0 STARLINK-5467,1 55660U 23021AJ  23100.01641607  .00000593  00000-0  67008-5 0  9994,2 55660  69.9992   5.8506 0003354 261.0715  99.0101 15.69927927  8598,6737.24,91.724,361.365,356.846,0.0
55660.0,STARLINK-5467,PAYLOAD,2023-04-10 03:27:08,15.69927718,0.000357,69.9986,5.4914,264.3843,95.6946,6.92e-06,6.19e-06,0.0,0 STARLINK-5467,1 55660U 23021AJ  23100.14384929  .00000619  00000-0  69200-5 0  9994,2 55660  69.9986   5.4914 0003570 264.3843  95.6946 15.69927718  8911,6737.241,91.724,361.511,356.701,0.0
55660.0,STARLINK-5467,PAYLOAD,2023-04-11 03:55:10,15.69926277,0.0003533,69.9988,2.6272,266.8726,93.2066,8.0506e-06,7.55e-06,0.0,0 STARLINK-5467,1 55660U 23021AJ  23101.16331782  .00000755  00000-0  80506-5 0  9999,2 55660  69.9988   2.6272 0003533 266.8726  93.2066 15.69926277  8775,6737.245,91.724,361.49,356.73,0.0
55660.0,STARLINK-5467,PAYLOAD,2023-04-12 02:51:27,15.69920629,0.0003431,69.9975,359.9374,268.0853,91.9949,-2.2155e-06,-4.79e-06,0.0,0 STARLINK-5467,1 55660U 23021AJ  23102.11907301 -.00000479  00000-0 -22155-5 0  9992,2 55660  69.9975 359.9374 0003431 268.0853  91.9949 15.69920629  8921,6737.261,91.724,361.438,356.815,0.0
55660.0,STARLINK-5467,PAYLOAD,2023-04-13 01:47:44,15.69914097,0.0003015,69.9993,357.2496,276.1854,83.8998,3.1485e-05,3.573e-05,0.0,0 STARLINK-5467,1 55660U 23021AJ  23103.07482227  .00003573  00000-0  31485-4 0  9994,2 55660  69.9993 357.2496 0003015 276.1854  83.8998 15.69914097  9372,6737.28,91.725,361.176,357.113,0.0
55660.0,STARLINK-5467,PAYLOAD,2023-04-14 02:15:45,15.69930807,0.0003485,69.9962,354.3859,265.3454,94.7343,9.788e-06,9.64e-06,0.0,0 STARLINK-5467,1 55660U 23021AJ  23104.09428038  .00000964  00000-0  97880-5 0  9990,2 55660  69.9962 354.3859 0003485 265.3454  94.7343 15.69930807  9233,6737.232,91.724,361.445,356.749,0.0
55660.0,STARLINK-5467,PAYLOAD,2023-04-14 12:58:03,15.69912052,0.0003911,69.9975,353.1312,266.0687,94.0061,2.0734e-06,3.6e-07,0.0,0 STARLINK-5467,1 55660U 23021AJ  23104.54031330  .00000036  00000-0  20734-5 0  9999,2 55660  69.9975 353.1312 0003911 266.0687  94.0061 15.69912052  9601,6737.286,91.725,361.786,356.516,0.0
55660.0,STARLINK-5467,PAYLOAD,2023-04-15 02:43:48,15.6992717,0.0002633,69.9997,351.5175,257.9948,102.0952,1.2385e-05,1.277e-05,0.0,0 STARLINK-5467,1 55660U 23021AJ  23105.11375505  .00001277  00000-0  12385-4 0  9998,2 55660  69.9997 351.5175 0002633 257.9948 102.0952 15.69927170  9395,6737.242,91.724,360.881,357.333,0.0
